MR-2                    
1 67556U 26015A   26050.44185770  .00000065  00000+0  79988-4 0  9997
2 67556  88.9962 280.5183 0005012  71.1610 289.0085 13.52686703  3796
MR-1                    
1 67557U 26015B   26050.14647918  .00000069  00000+0  85617-4 0  9992
2 67557  88.9962 280.5485 0005090  70.4541 289.7160 13.52661832  3756
ELECTRON R/B            
1 67558U 26015C   26050.58502381  .05776256 -15489-5  11171-2 0  9994
2 67558  88.9569 279.5808 0223560 163.7066 197.1564 15.90186444  4272
ELECTRON KICK STAGE R/B 
1 67559U 26015D   26050.51834046  .00045439 -16524-6  75982-3 0  9994
2 67559  89.0489 280.0601 0526958 236.7418 118.2261 14.68660135  4123
STARLINK-36426          
1 67560U 26014AA  26050.12076075  .00331933  00000+0  21323-2 0  9992
2 67560  97.2833 294.1888 0002786  66.7396 293.4162 15.75282314  5648
STARLINK-36621          
1 67561U 26016A   26050.11309478  .00119649  00000+0  79047-3 0  9995
2 67561  97.2824 109.6004 0002166 111.8966 248.2530 15.75229183  3871
STARLINK-36398          
1 67562U 26016B   26050.12049538  .00220034  00000+0  14312-2 0  9999
2 67562  97.2824 109.5882 0000897  68.0971 292.0389 15.75305465  3870
STARLINK-36403          
1 67563U 26016C   26050.08032587  .00152945  00000+0  78269-3 0  9998
2 67563  97.2835 109.6463 0001874 123.8387 236.3060 15.80888321  3876
STARLINK-36593          
1 67564U 26016D   26050.50003471 -.00769799  00000+0 -55134-2 0  9994
2 67564  97.2841 110.0885 0001758  71.4095 153.1193 15.75714286  5061
STARLINK-35725          
1 67565U 26016E   26050.10074433  .00289905  00000+0  18687-2 0  9993
2 67565  97.2829 109.6173 0001101 123.8107 236.3263 15.75321000  3877
STARLINK-36394          
1 67566U 26016F   26050.10251222  .00284951  00000+0  18395-2 0  9999
2 67566  97.2837 109.6116 0000889 109.6821 250.4540 15.75299305  3878
STARLINK-36352          
1 67567U 26016G   26050.13874151  .00244282  00000+0  12346-2 0  9998
2 67567  97.2831 109.7160 0001807 102.4210 257.7261 15.80924326  3882
