CCSDS_OMM_VERS = 2.0
CREATION_DATE  = 
ORIGINATOR     = 

OBJECT_NAME    = MR-2
OBJECT_ID      = 2026-015A
CENTER_NAME    = EARTH
REF_FRAME      = TEME
TIME_SYSTEM    = UTC
MEAN_ELEMENT_THEORY = SGP/SGP4

EPOCH          = 2026-02-19T10:36:16.505280
MEAN_MOTION    = 13.52686703
ECCENTRICITY   = .0005012
INCLINATION    = 88.9962
RA_OF_ASC_NODE = 280.5183
ARG_OF_PERICENTER = 71.1610
MEAN_ANOMALY   = 289.0085

EPHEMERIS_TYPE = 0
CLASSIFICATION_TYPE = U
NORAD_CAT_ID   = 67556
ELEMENT_SET_NO = 999
REV_AT_EPOCH   = 379
BSTAR          = .79988E-4
MEAN_MOTION_DOT = .65E-6
MEAN_MOTION_DDOT = 0

CCSDS_OMM_VERS = 2.0
CREATION_DATE  = 
ORIGINATOR     = 

OBJECT_NAME    = MR-1
OBJECT_ID      = 2026-015B
CENTER_NAME    = EARTH
REF_FRAME      = TEME
TIME_SYSTEM    = UTC
MEAN_ELEMENT_THEORY = SGP/SGP4

EPOCH          = 2026-02-19T03:30:55.801152
MEAN_MOTION    = 13.52661832
ECCENTRICITY   = .00050904
INCLINATION    = 88.9962
RA_OF_ASC_NODE = 280.5485
ARG_OF_PERICENTER = 70.4541
MEAN_ANOMALY   = 289.7160

EPHEMERIS_TYPE = 0
CLASSIFICATION_TYPE = U
NORAD_CAT_ID   = 67557
ELEMENT_SET_NO = 999
REV_AT_EPOCH   = 375
BSTAR          = .85616745E-4
MEAN_MOTION_DOT = .69E-6
MEAN_MOTION_DDOT = 0

CCSDS_OMM_VERS = 2.0
CREATION_DATE  = 
ORIGINATOR     = 

OBJECT_NAME    = ELECTRON R/B
OBJECT_ID      = 2026-015C
CENTER_NAME    = EARTH
REF_FRAME      = TEME
TIME_SYSTEM    = UTC
MEAN_ELEMENT_THEORY = SGP/SGP4

EPOCH          = 2026-02-19T14:02:26.057184
MEAN_MOTION    = 15.90186444
ECCENTRICITY   = .022356
INCLINATION    = 88.9569
RA_OF_ASC_NODE = 279.5808
ARG_OF_PERICENTER = 163.7066
MEAN_ANOMALY   = 197.1564

EPHEMERIS_TYPE = 0
CLASSIFICATION_TYPE = U
NORAD_CAT_ID   = 67558
ELEMENT_SET_NO = 999
REV_AT_EPOCH   = 427
BSTAR          = .11171E-2
MEAN_MOTION_DOT = .5776256E-1
MEAN_MOTION_DDOT = -.15489E-5

CCSDS_OMM_VERS = 2.0
CREATION_DATE  = 
ORIGINATOR     = 

OBJECT_NAME    = ELECTRON KICK STAGE R/B
OBJECT_ID      = 2026-015D
CENTER_NAME    = EARTH
REF_FRAME      = TEME
TIME_SYSTEM    = UTC
MEAN_ELEMENT_THEORY = SGP/SGP4

EPOCH          = 2026-02-19T12:26:24.615744
MEAN_MOTION    = 14.68660135
ECCENTRICITY   = .0526958
INCLINATION    = 89.0489
RA_OF_ASC_NODE = 280.0601
ARG_OF_PERICENTER = 236.7418
MEAN_ANOMALY   = 118.2261

EPHEMERIS_TYPE = 0
CLASSIFICATION_TYPE = U
NORAD_CAT_ID   = 67559
ELEMENT_SET_NO = 999
REV_AT_EPOCH   = 412
BSTAR          = .75982E-3
MEAN_MOTION_DOT = .45439E-3
MEAN_MOTION_DDOT = -.16524E-6

CCSDS_OMM_VERS = 2.0
CREATION_DATE  = 
ORIGINATOR     = 

OBJECT_NAME    = STARLINK-36426
OBJECT_ID      = 2026-014AA
CENTER_NAME    = EARTH
REF_FRAME      = TEME
TIME_SYSTEM    = UTC
MEAN_ELEMENT_THEORY = SGP/SGP4

EPOCH          = 2026-02-19T02:53:53.728800
MEAN_MOTION    = 15.75282314
ECCENTRICITY   = .00027864
INCLINATION    = 97.2833
RA_OF_ASC_NODE = 294.1888
ARG_OF_PERICENTER = 66.7396
MEAN_ANOMALY   = 293.4162

EPHEMERIS_TYPE = 0
CLASSIFICATION_TYPE = U
NORAD_CAT_ID   = 67560
ELEMENT_SET_NO = 999
REV_AT_EPOCH   = 564
BSTAR          = .21323393E-2
MEAN_MOTION_DOT = .331933E-2
MEAN_MOTION_DDOT = 0

CCSDS_OMM_VERS = 2.0
CREATION_DATE  = 
ORIGINATOR     = 

OBJECT_NAME    = STARLINK-36621
OBJECT_ID      = 2026-016A
CENTER_NAME    = EARTH
REF_FRAME      = TEME
TIME_SYSTEM    = UTC
MEAN_ELEMENT_THEORY = SGP/SGP4

EPOCH          = 2026-02-19T02:42:51.388992
MEAN_MOTION    = 15.75229183
ECCENTRICITY   = .00021663
INCLINATION    = 97.2824
RA_OF_ASC_NODE = 109.6004
ARG_OF_PERICENTER = 111.8966
MEAN_ANOMALY   = 248.2530

EPHEMERIS_TYPE = 0
CLASSIFICATION_TYPE = U
NORAD_CAT_ID   = 67561
ELEMENT_SET_NO = 999
REV_AT_EPOCH   = 387
BSTAR          = .7904738E-3
MEAN_MOTION_DOT = .119649E-2
MEAN_MOTION_DDOT = 0

CCSDS_OMM_VERS = 2.0
CREATION_DATE  = 
ORIGINATOR     = 

OBJECT_NAME    = STARLINK-36398
OBJECT_ID      = 2026-016B
CENTER_NAME    = EARTH
REF_FRAME      = TEME
TIME_SYSTEM    = UTC
MEAN_ELEMENT_THEORY = SGP/SGP4

EPOCH          = 2026-02-19T02:53:30.800832
MEAN_MOTION    = 15.75305465
ECCENTRICITY   = .0000897
INCLINATION    = 97.2824
RA_OF_ASC_NODE = 109.5882
ARG_OF_PERICENTER = 68.0971
MEAN_ANOMALY   = 292.0389

EPHEMERIS_TYPE = 0
CLASSIFICATION_TYPE = U
NORAD_CAT_ID   = 67562
ELEMENT_SET_NO = 999
REV_AT_EPOCH   = 387
BSTAR          = .14312E-2
MEAN_MOTION_DOT = .220034E-2
MEAN_MOTION_DDOT = 0

CCSDS_OMM_VERS = 2.0
CREATION_DATE  = 
ORIGINATOR     = 

OBJECT_NAME    = STARLINK-36403
OBJECT_ID      = 2026-016C
CENTER_NAME    = EARTH
REF_FRAME      = TEME
TIME_SYSTEM    = UTC
MEAN_ELEMENT_THEORY = SGP/SGP4

EPOCH          = 2026-02-19T01:55:40.155168
MEAN_MOTION    = 15.80888321
ECCENTRICITY   = .00018746
INCLINATION    = 97.2835
RA_OF_ASC_NODE = 109.6463
ARG_OF_PERICENTER = 123.8387
MEAN_ANOMALY   = 236.3060

EPHEMERIS_TYPE = 0
CLASSIFICATION_TYPE = U
NORAD_CAT_ID   = 67563
ELEMENT_SET_NO = 999
REV_AT_EPOCH   = 387
BSTAR          = .78268944E-3
MEAN_MOTION_DOT = .152945E-2
MEAN_MOTION_DDOT = 0

CCSDS_OMM_VERS = 2.0
CREATION_DATE  = 
ORIGINATOR     = 

OBJECT_NAME    = STARLINK-36593
OBJECT_ID      = 2026-016D
CENTER_NAME    = EARTH
REF_FRAME      = TEME
TIME_SYSTEM    = UTC
MEAN_ELEMENT_THEORY = SGP/SGP4

EPOCH          = 2026-02-19T12:00:02.998944
MEAN_MOTION    = 15.75714286
ECCENTRICITY   = .0001758
INCLINATION    = 97.2841
RA_OF_ASC_NODE = 110.0885
ARG_OF_PERICENTER = 71.4095
MEAN_ANOMALY   = 153.1193

EPHEMERIS_TYPE = 0
CLASSIFICATION_TYPE = U
NORAD_CAT_ID   = 67564
ELEMENT_SET_NO = 999
REV_AT_EPOCH   = 506
BSTAR          = -.55134E-2
MEAN_MOTION_DOT = -.769799E-2
MEAN_MOTION_DDOT = 0

CCSDS_OMM_VERS = 2.0
CREATION_DATE  = 
ORIGINATOR     = 

OBJECT_NAME    = STARLINK-35725
OBJECT_ID      = 2026-016E
CENTER_NAME    = EARTH
REF_FRAME      = TEME
TIME_SYSTEM    = UTC
MEAN_ELEMENT_THEORY = SGP/SGP4

EPOCH          = 2026-02-19T02:25:04.310112
MEAN_MOTION    = 15.75321000
ECCENTRICITY   = .00011013
INCLINATION    = 97.2829
RA_OF_ASC_NODE = 109.6173
ARG_OF_PERICENTER = 123.8107
MEAN_ANOMALY   = 236.3263

EPHEMERIS_TYPE = 0
CLASSIFICATION_TYPE = U
NORAD_CAT_ID   = 67565
ELEMENT_SET_NO = 999
REV_AT_EPOCH   = 387
BSTAR          = .18686597E-2
MEAN_MOTION_DOT = .289905E-2
MEAN_MOTION_DDOT = 0

CCSDS_OMM_VERS = 2.0
CREATION_DATE  = 
ORIGINATOR     = 

OBJECT_NAME    = STARLINK-36394
OBJECT_ID      = 2026-016F
CENTER_NAME    = EARTH
REF_FRAME      = TEME
TIME_SYSTEM    = UTC
MEAN_ELEMENT_THEORY = SGP/SGP4

EPOCH          = 2026-02-19T02:27:37.055808
MEAN_MOTION    = 15.75299305
ECCENTRICITY   = .00008893
INCLINATION    = 97.2837
RA_OF_ASC_NODE = 109.6116
ARG_OF_PERICENTER = 109.6821
MEAN_ANOMALY   = 250.4540

EPHEMERIS_TYPE = 0
CLASSIFICATION_TYPE = U
NORAD_CAT_ID   = 67566
ELEMENT_SET_NO = 999
REV_AT_EPOCH   = 387
BSTAR          = .18395263E-2
MEAN_MOTION_DOT = .284951E-2
MEAN_MOTION_DDOT = 0

CCSDS_OMM_VERS = 2.0
CREATION_DATE  = 
ORIGINATOR     = 

OBJECT_NAME    = STARLINK-36352
OBJECT_ID      = 2026-016G
CENTER_NAME    = EARTH
REF_FRAME      = TEME
TIME_SYSTEM    = UTC
MEAN_ELEMENT_THEORY = SGP/SGP4

EPOCH          = 2026-02-19T03:19:47.266464
MEAN_MOTION    = 15.80924326
ECCENTRICITY   = .00018076
INCLINATION    = 97.2831
RA_OF_ASC_NODE = 109.7160
ARG_OF_PERICENTER = 102.4210
MEAN_ANOMALY   = 257.7261

EPHEMERIS_TYPE = 0
CLASSIFICATION_TYPE = U
NORAD_CAT_ID   = 67567
ELEMENT_SET_NO = 999
REV_AT_EPOCH   = 388
BSTAR          = .12345541E-2
MEAN_MOTION_DOT = .244282E-2
MEAN_MOTION_DDOT = 0

